{
"type": "FeatureCollection",
"name": "municipios",
"crs": { "type": "name", "properties": { "name": "urn:ogc:def:crs:OGC:1.3:CRS84" } },
"features": [
{ "type": "Feature", "properties": { "nombre": "Villanueva del Ejemplo", "codigo": "28010", "superficie_km2": 22.088 }, "geometry": { "type": "Polygon", "coordinates": [ [ [ -3.726326424904885, 40.39031776202296 ], [ -3.739448360629384, 40.400207342536532 ], [ -3.747853819388332, 40.409098758996436 ], [ -3.762262085215471, 40.41969647475927 ], [ -3.783659509065754, 40.418290729035583 ], [ -3.791948234346578, 40.403072389540995 ], [ -3.795307317676471, 40.389863894138095 ], [ -3.78425359205325, 40.380032140294162 ], [ -3.778087782027463, 40.368246746635762 ], [ -3.761656995086167, 40.366014857645112 ], [ -3.749279657572769, 40.373661023526928 ], [ -3.737993128795484, 40.379727489560899 ], [ -3.726326424904885, 40.39031776202296 ] ] ] } },
{ "type": "Feature", "properties": { "nombre": "San Martín de Prueba", "codigo": "28011", "superficie_km2": 22.429 }, "geometry": { "type": "Polygon", "coordinates": [ [ [ -3.650135124700328, 40.390771240225504 ], [ -3.653837182437997, 40.40385082121518 ], [ -3.668944023645164, 40.410043454721858 ], [ -3.683565467400469, 40.40847819007525 ], [ -3.698414833402592, 40.410127872379427 ], [ -3.718805291525129, 40.40592937653625 ], [ -3.710955878192769, 40.390413287617044 ], [ -3.718580288099115, 40.374754525426006 ], [ -3.699802714387984, 40.368433995283333 ], [ -3.683185572340631, 40.370894834545645 ], [ -3.669295058918036, 40.37224276132438 ], [ -3.647153408057972, 40.374859973352272 ], [ -3.650135124700328, 40.390771240225504 ] ] ] } },
{ "type": "Feature", "properties": { "nombre": "Los Sauces", "codigo": "28012", "superficie_km2": 22.184 }, "geometry": { "type": "Polygon", "coordinates": [ [ [ -3.563062262142683, 40.391228010317057 ], [ -3.583080240304382, 40.400771365943946 ], [ -3.589970493525564, 40.411016131049081 ], [ -3.60502439637127, 40.411735374257638 ], [ -3.6212406709735, 40.412391595823728 ], [ -3.632185449778278, 40.402893890751493 ], [ -3.634979015317882, 40.390855460037535 ], [ -3.629556884495159, 40.379927727486148 ], [ -3.623176465759444, 40.366332935270819 ], [ -3.604582810087031, 40.362368275101097 ], [ -3.592734226796294, 40.375232001545932 ], [ -3.570052298711269, 40.375893384786501 ], [ -3.563062262142683, 40.391228010317057 ] ] ] } },
{ "type": "Feature", "properties": { "nombre": "Alcalá del Test", "codigo": "28013", "superficie_km2": 25.151 }, "geometry": { "type": "Polygon", "coordinates": [ [ [ -3.726542873813418, 40.450376600542448 ], [ -3.73022415651017, 40.464705306714031 ], [ -3.747721027949365, 40.470231755054428 ], [ -3.762924917946418, 40.478335000614074 ], [ -3.778699674561369, 40.471013036994705 ], [ -3.794773353247853, 40.464043126875666 ], [ -3.799246858916236, 40.449896770623958 ], [ -3.795832613292244, 40.435187539363127 ], [ -3.777531736691918, 40.429988040548302 ], [ -3.762355057637353, 40.427931857935143 ], [ -3.747323313299624, 40.430312885536786 ], [ -3.731726289817135, 40.436787918124509 ], [ -3.726542873813418, 40.450376600542448 ] ] ] } },
{ "type": "Feature", "properties": { "nombre": "Valdemuestra", "codigo": "28014", "superficie_km2": 23.162 }, "geometry": { "type": "Polygon", "coordinates": [ [ [ -3.649596591812002, 40.4508346167121 ], [ -3.65565280134921, 40.463354376412006 ], [ -3.671269192700224, 40.467771516913935 ], [ -3.68426775187688, 40.477769362611014 ], [ -3.699472639230112, 40.470750496054123 ], [ -3.716369242610409, 40.464654448205067 ], [ -3.717432243967105, 40.450433504230432 ], [ -3.713016968299846, 40.437598551119912 ], [ -3.698814197801282, 40.430662064777188 ], [ -3.683717779168852, 40.423526607468858 ], [ -3.666756953909204, 40.428224312556281 ], [ -3.657149235624693, 40.439002467867631 ], [ -3.649596591812002, 40.4508346167121 ] ] ] } },
{ "type": "Feature", "properties": { "nombre": "Pozuelo Sintético", "codigo": "28015", "superficie_km2": 24.729 }, "geometry": { "type": "Polygon", "coordinates": [ [ [ -3.566093351497445, 40.45127370649859 ], [ -3.57798269002891, 40.463343664072241 ], [ -3.586900926466452, 40.475902764528747 ], [ -3.605566236689772, 40.472143415621005 ], [ -3.61957808759479, 40.469564929733373 ], [ -3.636845002973572, 40.46472778822779 ], [ -3.635820962075071, 40.450911208869037 ], [ -3.633600813527318, 40.438422759455896 ], [ -3.618500994930828, 40.433425967974728 ], [ -3.605061974288565, 40.415930742808577 ], [ -3.589199420524711, 40.42999603404435 ], [ -3.570745881557639, 40.436032657679483 ], [ -3.566093351497445, 40.45127370649859 ] ] ] } },
{ "type": "Feature", "properties": { "nombre": "Torrejón de Datos", "codigo": "28016", "superficie_km2": 20.377 }, "geometry": { "type": "Polygon", "coordinates": [ [ [ -3.735442605811626, 40.51037988467769 ], [ -3.735952458248268, 40.522480675760178 ], [ -3.747207360311729, 40.531878283685089 ], [ -3.763595171414965, 40.537454658163945 ], [ -3.777830630212947, 40.529042396293924 ], [ -3.798596473535176, 40.52544105515944 ], [ -3.794193516254154, 40.50999103739322 ], [ -3.78738985871463, 40.499359995937574 ], [ -3.778608010649725, 40.489525355391919 ], [ -3.763006640212867, 40.485552726743272 ], [ -3.750946742518611, 40.494203701914913 ], [ -3.741502140661491, 40.500787502757085 ], [ -3.735442605811626, 40.51037988467769 ] ] ] } },
{ "type": "Feature", "properties": { "nombre": "Rivas Ficticia", "codigo": "28017", "superficie_km2": 21.651 }, "geometry": { "type": "Polygon", "coordinates": [ [ [ -3.650965208827587, 40.510886646996347 ], [ -3.655988538583562, 40.523522286793877 ], [ -3.673547625652783, 40.525568075420246 ], [ -3.684846880440641, 40.534728177701865 ], [ -3.702470280809165, 40.533886090158354 ], [ -3.711018935609996, 40.522120305003064 ], [ -3.721325275873517, 40.510468869793428 ], [ -3.708825214883424, 40.499821694159429 ], [ -3.695710283051764, 40.495737053541916 ], [ -3.684282704390696, 40.479242036059546 ], [ -3.667952966459235, 40.489063199880285 ], [ -3.655094886842845, 40.49791532151994 ], [ -3.650965208827587, 40.510886646996347 ] ] ] } },
{ "type": "Feature", "properties": { "nombre": "Getafe Simulado", "codigo": "28018", "superficie_km2": 25.136 }, "geometry": { "type": "Polygon", "coordinates": [ [ [ -3.575191399653882, 40.511288654592555 ], [ -3.574271376073276, 40.525291265455195 ], [ -3.588420985527975, 40.534622544811832 ], [ -3.606168929508976, 40.539120782190388 ], [ -3.619258522895568, 40.52848714822133 ], [ -3.632730977882, 40.522755622525061 ], [ -3.638415986152518, 40.510956658381154 ], [ -3.628855782646885, 40.50085856036555 ], [ -3.626492494297009, 40.483481287686409 ], [ -3.605630601180993, 40.479307026671549 ], [ -3.590429327697191, 40.49097141716765 ], [ -3.570278365340607, 40.495666338638465 ], [ -3.575191399653882, 40.511288654592555 ] ] ] } }
]
}
